0 OBJECT BB
1 57327U 23091BB  24043.59462686  .00020160  00000-0  12669-2 0  9993
2 57327  97.6316  97.4611 0016359 184.2145 175.8948 15.09169413 32337
0 OBJECT BB
1 57327U 23091BB  24043.79353691  .00020805  00000-0  13069-2 0  9991
2 57327  97.6315  97.6591 0016357 183.4685 176.6433 15.09177133 32362
0 OBJECT BB
1 57327U 23091BB  24043.92614243  .00017917  00000-0  11264-2 0  9994
2 57327  97.6314  97.7911 0016352 183.1188 176.9941 15.09181257 32389
0 OBJECT BB
1 57327U 23091BB  24044.12505064  .00017259  00000-0  10850-2 0  9996
2 57327  97.6314  97.9893 0016383 182.4975 177.6174 15.09188947 32413
0 OBJECT BB
1 57327U 23091BB  24044.45656187  .00020715  00000-0  13003-2 0  9999
2 57327  97.6312  98.3189 0016450 181.4534 178.6650 15.09204144 32462
0 OBJECT BB
1 57327U 23091BB  24044.58916557  .00022446  00000-0  14080-2 0  9992
2 57327  97.6312  98.4508 0016455 181.0933 179.0262 15.09211260 32485
0 OBJECT BB
1 57327U 23091BB  24044.85437168  .00023616  00000-0  14805-2 0  9993
2 57327  97.6311  98.7148 0016462 180.1573 179.9654 15.09221441 32526
0 OBJECT BB
1 57327U 23091BB  24044.92067249  .00024496  00000-0  15352-2 0  9995
2 57327  97.6311  98.7807 0016457 179.9683 180.1549 15.09225562 32536
0 OBJECT BB
1 57327U 23091BB  24045.18587558  .00023862  00000-0  14952-2 0  9995
2 57327  97.6310  99.0446 0016462 179.2024 180.9234 15.09237629 32576
0 OBJECT BB
1 57327U 23091BB  24045.45107636  .00023543  00000-0  14748-2 0  9999
2 57327  97.6310  99.3083 0016514 178.3938 181.7346 15.09249529 32618
0 OBJECT BB
1 57327U 23091BB  24045.58367642  .00020245  00000-0  12692-2 0  9990
2 57327  97.6310  99.4401 0016524 177.9903 182.1395 15.09252946 32639
0 OBJECT BB
1 57327U 23091BB  24045.78257543  .00021636  00000-0  13556-2 0  9995
2 57327  97.6310  99.6382 0016517 177.3179 182.8141 15.09261158 32664
0 OBJECT BB
1 57327U 23091BB  24045.91517404  .00023424  00000-0  14667-2 0  9996
2 57327  97.6309  99.7702 0016508 176.9248 183.2085 15.09267434 32688
0 OBJECT BB
1 57327U 23091BB  24046.11407115  .00023742  00000-0  14861-2 0  9995
2 57327  97.6309  99.9681 0016505 176.3391 183.7962 15.09276325 32718
0 OBJECT BB
1 57327U 23091BB  24046.37926489  .00019063  00000-0  11945-2 0  9994
2 57327  97.6309 100.2317 0016543 175.6191 184.5185 15.09284643 32754
0 OBJECT BB
1 57327U 23091BB  24046.57815975  .00019244  00000-0  12055-2 0  9997
2 57327  97.6310 100.4297 0016561 174.9972 185.1425 15.09292725 32781
0 OBJECT BB
1 57327U 23091BB  24046.77705368  .00019887  00000-0  12453-2 0  9998
2 57327  97.6310 100.6276 0016539 174.2373 185.9049 15.09300462 32815
0 OBJECT BB
1 57327U 23091BB  24046.90964858  .00019837  00000-0  12420-2 0  9993
2 57327  97.6310 100.7595 0016551 173.8246 186.3190 15.09305923 32839
0 OBJECT BB
1 57327U 23091BB  24047.17483770  .00019403  00000-0  12146-2 0  9996
2 57327  97.6310 101.0233 0016565 172.9439 187.2026 15.09316006 32877
0 OBJECT BB
1 57327U 23091BB  24047.44002477  .00023770  00000-0  14856-2 0  9999
2 57327  97.6311 101.2874 0016559 172.1079 188.0413 15.09331009 32910
0 OBJECT BB
1 57327U 23091BB  24047.57261797  .00020878  00000-0  13058-2 0  9994
2 57327  97.6311 101.4194 0016566 171.7041 188.4465 15.09332844 32930
0 OBJECT BB
1 57327U 23091BB  24047.77150621  .00020867  00000-0  13048-2 0  9996
2 57327  97.6312 101.6173 0016581 171.0665 189.0862 15.09341103 32961
0 OBJECT BB
1 57327U 23091BB  24047.90409837  .00018692  00000-0  11695-2 0  9996
2 57327  97.6312 101.7491 0016593 170.6120 189.5422 15.09343199 32985
0 OBJECT BB
1 57327U 23091BB  24048.16928050  .00018894  00000-0  11817-2 0  9998
2 57327  97.6312 102.0128 0016597 169.7636 190.3934 15.09354342 33027
0 OBJECT BB
1 57327U 23091BB  24048.50075564  .00019775  00000-0  12360-2 0  9992
2 57327  97.6313 102.3427 0016593 168.6254 191.5353 15.09368228 33074
0 OBJECT BB
1 57327U 23091BB  24048.56705032  .00019430  00000-0  12145-2 0  9997
2 57327  97.6313 102.4087 0016593 168.4164 191.7449 15.09370658 33084
0 OBJECT BB
1 57327U 23091BB  24048.76593379  .00019267  00000-0  12041-2 0  9991
2 57327  97.6314 102.6066 0016605 167.7531 192.4105 15.09378189 33116
0 OBJECT BB
1 57327U 23091BB  24048.89852203  .00019981  00000-0  12482-2 0  9991
2 57327  97.6314 102.7385 0016628 167.3076 192.8574 15.09384219 33133
0 OBJECT BB
1 57327U 23091BB  24049.16369721  .00019887  00000-0  12420-2 0  9997
2 57327  97.6314 103.0023 0016631 166.3709 193.7972 15.09395187 33174
0 OBJECT BB
1 57327U 23091BB  24049.49516342  .00021375  00000-0  13338-2 0  9990
2 57327  97.6315 103.3322 0016641 165.2244 194.9475 15.09410037 33222
0 OBJECT BB
1 57327U 23091BB  24049.56145632  .00020363  00000-0  12710-2 0  9997
2 57327  97.6315 103.3982 0016646 164.9934 195.1792 15.09411814 33231
0 OBJECT BB
1 57327U 23091BB  24049.82662665  .00020178  00000-0  12591-2 0  9997
2 57327  97.6316 103.6621 0016677 164.0774 196.0982 15.09422507 33278
0 OBJECT BB
1 57327U 23091BB  24049.89291890  .00020070  00000-0  12523-2 0  9998
2 57327  97.6316 103.7281 0016689 163.8468 196.3296 15.09425132 33280
0 OBJECT BB
1 57327U 23091BB  24050.15808701  .00018943  00000-0  11821-2 0  9990
2 57327  97.6316 103.9920 0016709 162.8873 197.2922 15.09435010 33321
0 OBJECT BB
1 57327U 23091BB  24050.48954479  .00018372  00000-0  11463-2 0  9998
2 57327  97.6316 104.3218 0016728 161.6996 198.4838 15.09446851 33379
0 OBJECT BB
1 57327U 23091BB  24050.55583617  .00017838  00000-0  11131-2 0  9996
2 57327  97.6317 104.3878 0016729 161.4776 198.7065 15.09448704 33382
0 OBJECT BB
1 57327U 23091BB  24050.82100046  .00017068  00000-0  10651-2 0  9998
2 57327  97.6317 104.6517 0016769 160.5117 199.6756 15.09457107 33427
0 OBJECT BB
1 57327U 23091BB  24050.95358202  .00014872  00000-0  92877-3 0  9992
2 57327  97.6317 104.7836 0016802 160.0715 200.1174 15.09459088 33443
0 OBJECT BB
1 57327U 23091BB  24051.15245362  .00014779  00000-0  92284-3 0  9995
2 57327  97.6316 104.9815 0016815 159.3464 200.8448 15.09465939 33473
0 OBJECT BB
1 57327U 23091BB  24051.48390480  .00015016  00000-0  93729-3 0  9993
2 57327  97.6316 105.3114 0016829 158.1893 202.0056 15.09476003 33527
0 OBJECT BB
1 57327U 23091BB  24051.61648453  .00015811  00000-0  98642-3 0  9996
2 57327  97.6316 105.4433 0016845 157.6780 202.5186 15.09481446 33547
0 OBJECT BB
1 57327U 23091BB  24051.81535354  .00015854  00000-0  98891-3 0  9996
2 57327  97.6316 105.6413 0016865 157.0100 203.1887 15.09487517 33572
0 OBJECT BB
1 57327U 23091BB  24051.94793248  .00015110  00000-0  94267-3 0  9996
2 57327  97.6315 105.7732 0016895 156.5086 203.6918 15.09490683 33596
0 OBJECT BB
1 57327U 23091BB  24052.14680009  .00015288  00000-0  95356-3 0  9995
2 57327  97.6314 105.9711 0016915 155.7986 204.4041 15.09497466 33623
0 OBJECT BB
1 57327U 23091BB  24052.47824432  .00015087  00000-0  94081-3 0  9992
2 57327  97.6313 106.3010 0016951 154.6633 205.5430 15.09507069 33676
0 OBJECT BB
1 57327U 23091BB  24052.61082147  .00013552  00000-0  84563-3 0  9996
2 57327  97.6313 106.4329 0016961 154.2292 205.9786 15.09509628 33691
0 OBJECT BB
1 57327U 23091BB  24052.80968661  .00013169  00000-0  82176-3 0  9993
2 57327  97.6313 106.6308 0016973 153.5637 206.6462 15.09514956 33721
0 OBJECT BB
1 57327U 23091BB  24052.87597467  .00013815  00000-0  86172-3 0  9990
2 57327  97.6312 106.6968 0016991 153.3054 206.9053 15.09517815 33730
0 OBJECT BB
1 57327U 23091BB  24053.14112682  .00012831  00000-0  80060-3 0  9990
2 57327  97.6311 106.9606 0017023 152.3784 207.8353 15.09524562 33771
0 OBJECT BB
1 57327U 23091BB  24053.47256487  .00013798  00000-0  86026-3 0  9999
2 57327  97.6310 107.2903 0017059 151.2475 208.9697 15.09534639 33823
0 OBJECT BB
1 57327U 23091BB  24053.60513956  .00013948  00000-0  86947-3 0  9990
2 57327  97.6309 107.4222 0017068 150.8054 209.4132 15.09538779 33846
0 OBJECT BB
1 57327U 23091BB  24053.80400104  .00013591  00000-0  84720-3 0  9993
2 57327  97.6308 107.6200 0017089 150.1351 210.0857 15.09543782 33874
0 OBJECT BB
1 57327U 23091BB  24053.93657495  .00013015  00000-0  81146-3 0  9994
2 57327  97.6308 107.7520 0017100 149.7136 210.5084 15.09546721 33894
0 OBJECT BB
1 57327U 23091BB  24054.13543511  .00013003  00000-0  81060-3 0  9992
2 57327  97.6306 107.9499 0017121 149.0450 211.1792 15.09552752 33922
0 OBJECT BB
1 57327U 23091BB  24054.46686703  .00012603  00000-0  78562-3 0  9997
2 57327  97.6305 108.2797 0017155 147.9887 212.2387 15.09561191 33978
0 OBJECT BB
1 57327U 23091BB  24054.59943914  .00013850  00000-0  86268-3 0  9998
2 57327  97.6304 108.4117 0017154 147.5768 212.6518 15.09566705 33996
0 OBJECT BB
1 57327U 23091BB  24054.79829685  .00013875  00000-0  86409-3 0  9992
2 57327  97.6303 108.6095 0017173 146.9340 213.2966 15.09572230 34021
0 OBJECT BB
1 57327U 23091BB  24054.86458260  .00013390  00000-0  83405-3 0  9992
2 57327  97.6303 108.6755 0017177 146.7418 213.4894 15.09573437 34035
0 OBJECT BB
1 57327U 23091BB  24055.12972482  .00013176  00000-0  82066-3 0  9993
2 57327  97.6301 108.9394 0017183 145.9053 214.3283 15.09580871 34074
0 OBJECT BB
1 57327U 23091BB  24055.39486582  .00013358  00000-0  83176-3 0  9998
2 57327  97.6299 109.2032 0017189 145.1223 215.1136 15.09587515 34113
0 OBJECT BB
1 57327U 23091BB  24055.39486582  .00013358  00000-0  83176-3 0  9998
2 57327  97.6299 109.2032 0017189 145.1223 215.1136 15.09587515 34113
0 OBJECT BB
1 57327U 23091BB  24055.79257495  .00015255  00000-0  94874-3 0  9996
2 57327  97.6296 109.5989 0017199 143.9400 216.2993 15.09600413 34170
0 OBJECT BB
1 57327U 23091BB  24055.92514402  .00015596  00000-0  96966-3 0  9997
2 57327  97.6295 109.7309 0017206 143.5373 216.7031 15.09604268 34193
0 OBJECT BB
1 57327U 23091BB  24056.19028093  .00015984  00000-0  99344-3 0  9997
2 57327  97.6293 109.9946 0017235 142.7693 217.4734 15.09612618 34239
